{
  "type": "FeatureCollection",
  "features": [
    {
      "type": "Feature",
      "properties": {
        "norad_id": 38833,
        "name": "GPS BIIF-3  (PRN 24)",
        "group": "gps-ops",
        "lat": -53.19575193337872,
        "lon": 52.63035557586582,
        "alt_km": 20622.81352919513,
        "timestamp": "2025-12-06T05:40:09.500311+00:00",
        "meta_object_name": "GPS BIIF-3  (PRN 24)",
        "meta_object_id": "2012-053A",
        "meta_epoch": "2025-12-04T20:58:35.662368",
        "meta_mean_motion": 2.00564858,
        "meta_eccentricity": 0.0175571,
        "meta_inclination": 53.5563,
        "meta_ra_of_asc_node": 151.5608,
        "meta_arg_of_pericenter": 63.8805,
        "meta_mean_anomaly": 297.9293,
        "meta_ephemeris_type": 0,
        "meta_classification_type": "U",
        "meta_norad_cat_id": 38833,
        "meta_element_set_no": 999,
        "meta_rev_at_epoch": 9554,
        "meta_bstar": 0,
        "meta_mean_motion_dot": 7.4e-07,
        "meta_mean_motion_ddot": 0,
        "tle_line1": "1 38833U 12053A   25338.87402387  .00000074  00000+0  00000+0 0  9995",
        "tle_line2": "2 38833  53.5563 151.5608 0175571  63.8805 297.9293  2.00564858 95548"
      },
      "geometry": {
        "type": "Point",
        "coordinates": [
          52.63035557586582,
          -53.19575193337872
        ]
      }
    },
    {
      "type": "Feature",
      "properties": {
        "norad_id": 39166,
        "name": "GPS BIIF-4  (PRN 27)",
        "group": "gps-ops",
        "lat": 1.5292040973345618,
        "lon": -82.10244966384963,
        "alt_km": 19929.626533593146,
        "timestamp": "2025-12-06T05:40:09.500323+00:00",
        "meta_object_name": "GPS BIIF-4  (PRN 27)",
        "meta_object_id": "2013-023A",
        "meta_epoch": "2025-12-02T17:50:49.750368",
        "meta_mean_motion": 2.00565046,
        "meta_eccentricity": 0.0137297,
        "meta_inclination": 54.6608,
        "meta_ra_of_asc_node": 276.9746,
        "meta_arg_of_pericenter": 48.5033,
        "meta_mean_anomaly": 312.6627,
        "meta_ephemeris_type": 0,
        "meta_classification_type": "U",
        "meta_norad_cat_id": 39166,
        "meta_element_set_no": 999,
        "meta_rev_at_epoch": 9194,
        "meta_bstar": 0,
        "meta_mean_motion_dot": -3.8e-07,
        "meta_mean_motion_ddot": 0,
        "tle_line1": "1 39166U 13023A   25336.74363137 -.00000038  00000+0  00000+0 0  9997",
        "tle_line2": "2 39166  54.6608 276.9746 0137297  48.5033 312.6627  2.00565046 91947"
      },
      "geometry": {
        "type": "Point",
        "coordinates": [
          -82.10244966384963,
          1.5292040973345618
        ]
      }
    },
    {
      "type": "Feature",
      "properties": {
        "norad_id": 39533,
        "name": "GPS BIIF-5  (PRN 30)",
        "group": "gps-ops",
        "lat": 4.705713670012228,
        "lon": 160.66233573671772,
        "alt_km": 20339.511307236437,
        "timestamp": "2025-12-06T05:40:09.500334+00:00",
        "meta_object_name": "GPS BIIF-5  (PRN 30)",
        "meta_object_id": "2014-008A",
        "meta_epoch": "2025-12-04T17:34:38.743104",
        "meta_mean_motion": 2.00573893,
        "meta_eccentricity": 0.00790018,
        "meta_inclination": 53.63,
        "meta_ra_of_asc_node": 157.2513,
        "meta_arg_of_pericenter": 226.4017,
        "meta_mean_anomaly": 132.9667,
        "meta_ephemeris_type": 0,
        "meta_classification_type": "U",
        "meta_norad_cat_id": 39533,
        "meta_element_set_no": 999,
        "meta_rev_at_epoch": 8578,
        "meta_bstar": 0,
        "meta_mean_motion_dot": 8.2e-07,
        "meta_mean_motion_ddot": 0,
        "tle_line1": "1 39533U 14008A   25338.73239286  .00000082  00000+0  00000+0 0  9995",
        "tle_line2": "2 39533  53.6300 157.2513 0079001 226.4017 132.9667  2.00573893 85784"
      },
      "geometry": {
        "type": "Point",
        "coordinates": [
          160.66233573671772,
          4.705713670012228
        ]
      }
    },
    {
      "type": "Feature",
      "properties": {
        "norad_id": 39741,
        "name": "GPS BIIF-6  (PRN 06)",
        "group": "gps-ops",
        "lat": 15.499127199436918,
        "lon": 148.47582350638532,
        "alt_km": 20275.673349419016,
        "timestamp": "2025-12-06T05:40:09.500346+00:00",
        "meta_object_name": "GPS BIIF-6  (PRN 06)",
        "meta_object_id": "2014-026A",
        "meta_epoch": "2025-12-04T12:23:41.363808",
        "meta_mean_motion": 2.0056177,
        "meta_eccentricity": 0.003895,
        "meta_inclination": 56.5867,
        "meta_ra_of_asc_node": 339.0964,
        "meta_arg_of_pericenter": 318.2284,
        "meta_mean_anomaly": 41.4951,
        "meta_ephemeris_type": 0,
        "meta_classification_type": "U",
        "meta_norad_cat_id": 39741,
        "meta_element_set_no": 999,
        "meta_rev_at_epoch": 8463,
        "meta_bstar": 0,
        "meta_mean_motion_dot": -7e-07,
        "meta_mean_motion_ddot": 0,
        "tle_line1": "1 39741U 14026A   25338.51645097 -.00000070  00000+0  00000+0 0  9991",
        "tle_line2": "2 39741  56.5867 339.0964 0038950 318.2284  41.4951  2.00561770 84633"
      },
      "geometry": {
        "type": "Point",
        "coordinates": [
          148.47582350638532,
          15.499127199436918
        ]
      }
    },
    {
      "type": "Feature",
      "properties": {
        "norad_id": 40105,
        "name": "GPS BIIF-7  (PRN 09)",
        "group": "gps-ops",
        "lat": 54.345781649296754,
        "lon": -159.20072185539752,
        "alt_km": 20093.647776020185,
        "timestamp": "2025-12-06T05:40:09.500358+00:00",
        "meta_object_name": "GPS BIIF-7  (PRN 09)",
        "meta_object_id": "2014-045A",
        "meta_epoch": "2025-12-03T14:34:35.183424",
        "meta_mean_motion": 2.00571854,
        "meta_eccentricity": 0.00329245,
        "meta_inclination": 55.2235,
        "meta_ra_of_asc_node": 96.2633,
        "meta_arg_of_pericenter": 119.6263,
        "meta_mean_anomaly": 240.6737,
        "meta_ephemeris_type": 0,
        "meta_classification_type": "U",
        "meta_norad_cat_id": 40105,
        "meta_element_set_no": 999,
        "meta_rev_at_epoch": 8215,
        "meta_bstar": 0,
        "meta_mean_motion_dot": -7e-08,
        "meta_mean_motion_ddot": 0,
        "tle_line1": "1 40105U 14045A   25337.60735166 -.00000007  00000+0  00000+0 0  9994",
        "tle_line2": "2 40105  55.2235  96.2633 0032924 119.6263 240.6737  2.00571854 82158"
      },
      "geometry": {
        "type": "Point",
        "coordinates": [
          -159.20072185539752,
          54.345781649296754
        ]
      }
    },
    {
      "type": "Feature",
      "properties": {
        "norad_id": 40294,
        "name": "GPS BIIF-8  (PRN 03)",
        "group": "gps-ops",
        "lat": -6.674002088037787,
        "lon": -137.20151435207495,
        "alt_km": 20260.08715863568,
        "timestamp": "2025-12-06T05:40:09.500370+00:00",
        "meta_object_name": "GPS BIIF-8  (PRN 03)",
        "meta_object_id": "2014-068A",
        "meta_epoch": "2025-12-03T11:38:05.638272",
        "meta_mean_motion": 2.00564094,
        "meta_eccentricity": 0.00608191,
        "meta_inclination": 56.851,
        "meta_ra_of_asc_node": 38.5042,
        "meta_arg_of_pericenter": 69.3788,
        "meta_mean_anomaly": 291.3251,
        "meta_ephemeris_type": 0,
        "meta_classification_type": "U",
        "meta_norad_cat_id": 40294,
        "meta_element_set_no": 999,
        "meta_rev_at_epoch": 8128,
        "meta_bstar": 0,
        "meta_mean_motion_dot": -6.5e-07,
        "meta_mean_motion_ddot": 0,
        "tle_line1": "1 40294U 14068A   25337.48478748 -.00000065  00000+0  00000+0 0  9998",
        "tle_line2": "2 40294  56.8510  38.5042 0060819  69.3788 291.3251  2.00564094 81285"
      },
      "geometry": {
        "type": "Point",
        "coordinates": [
          -137.20151435207495,
          -6.674002088037787
        ]
      }
    },
    {
      "type": "Feature",
      "properties": {
        "norad_id": 40534,
        "name": "GPS BIIF-9  (PRN 26)",
        "group": "gps-ops",
        "lat": 52.95393771958304,
        "lon": -50.244032410658356,
        "alt_km": 20016.05756768712,
        "timestamp": "2025-12-06T05:40:09.500383+00:00",
        "meta_object_name": "GPS BIIF-9  (PRN 26)",
        "meta_object_id": "2015-013A",
        "meta_epoch": "2025-12-04T14:41:18.695616",
        "meta_mean_motion": 2.0056296,
        "meta_eccentricity": 0.0106701,
        "meta_inclination": 53.1991,
        "meta_ra_of_asc_node": 212.2269,
        "meta_arg_of_pericenter": 38.2819,
        "meta_mean_anomaly": 322.5704,
        "meta_ephemeris_type": 0,
        "meta_classification_type": "U",
        "meta_norad_cat_id": 40534,
        "meta_element_set_no": 999,
        "meta_rev_at_epoch": 7792,
        "meta_bstar": 0,
        "meta_mean_motion_dot": 7.2e-07,
        "meta_mean_motion_ddot": 0,
        "tle_line1": "1 40534U 15013A   25338.61202194  .00000072  00000+0  00000+0 0  9999",
        "tle_line2": "2 40534  53.1991 212.2269 0106701  38.2819 322.5704  2.00562960 77924"
      },
      "geometry": {
        "type": "Point",
        "coordinates": [
          -50.244032410658356,
          52.95393771958304
        ]
      }
    }
  ]
}